{
  "type": "FeatureCollection",
  "features": [
    {
      "type": "Feature",
      "properties": {
        "norad_id": 32150,
        "name": "FENGYUN 1C DEB",
        "group": "fengyun-1c-debris",
        "lat": 10.390224781113925,
        "lon": -154.23198114325837,
        "alt_km": 786.0219587246984,
        "timestamp": "2025-12-25T19:00:39.636702+00:00",
        "meta_object_name": "FENGYUN 1C DEB",
        "meta_object_id": "1999-025CSU",
        "meta_epoch": "2025-12-24T20:52:34.881024",
        "meta_mean_motion": 14.60693134,
        "meta_eccentricity": 0.0171444,
        "meta_inclination": 99.1914,
        "meta_ra_of_asc_node": 23.0436,
        "meta_arg_of_pericenter": 30.9961,
        "meta_mean_anomaly": 330.1219,
        "meta_ephemeris_type": 0,
        "meta_classification_type": "U",
        "meta_norad_cat_id": 32150,
        "meta_element_set_no": 999,
        "meta_rev_at_epoch": 97883,
        "meta_bstar": 0.00016976,
        "meta_mean_motion_dot": 9.49e-06,
        "meta_mean_motion_ddot": 0,
        "tle_line1": "1 32150U 99025CSU 25358.86984816  .00000949  00000+0  16976-3 0  9992",
        "tle_line2": "2 32150  99.1914  23.0436 0171444  30.9961 330.1219 14.60693134978834"
      },
      "geometry": {
        "type": "Point",
        "coordinates": [
          -154.23198114325837,
          10.390224781113925
        ]
      }
    },
    {
      "type": "Feature",
      "properties": {
        "norad_id": 32152,
        "name": "FENGYUN 1C DEB",
        "group": "fengyun-1c-debris",
        "lat": 3.848838932193885,
        "lon": -17.806198309044113,
        "alt_km": 667.7431211579596,
        "timestamp": "2025-12-25T19:00:39.636712+00:00",
        "meta_object_name": "FENGYUN 1C DEB",
        "meta_object_id": "1999-025CSW",
        "meta_epoch": "2025-12-21T05:25:01.444224",
        "meta_mean_motion": 14.56838784,
        "meta_eccentricity": 0.00551981,
        "meta_inclination": 98.7603,
        "meta_ra_of_asc_node": 156.8014,
        "meta_arg_of_pericenter": 175.7831,
        "meta_mean_anomaly": 184.3842,
        "meta_ephemeris_type": 0,
        "meta_classification_type": "U",
        "meta_norad_cat_id": 32152,
        "meta_element_set_no": 999,
        "meta_rev_at_epoch": 62736,
        "meta_bstar": 0.0014652442,
        "meta_mean_motion_dot": 6.654e-05,
        "meta_mean_motion_ddot": 0,
        "tle_line1": "1 32152U 99025CSW 25355.22571116  .00006654  00000+0  14652-2 0  9993",
        "tle_line2": "2 32152  98.7603 156.8014 0055198 175.7831 184.3842 14.56838784627361"
      },
      "geometry": {
        "type": "Point",
        "coordinates": [
          -17.806198309044113,
          3.848838932193885
        ]
      }
    },
    {
      "type": "Feature",
      "properties": {
        "norad_id": 32153,
        "name": "FENGYUN 1C DEB",
        "group": "fengyun-1c-debris",
        "lat": 54.56986172362796,
        "lon": 35.767616738288496,
        "alt_km": 642.8275827873485,
        "timestamp": "2025-12-25T19:00:39.636723+00:00",
        "meta_object_name": "FENGYUN 1C DEB",
        "meta_object_id": "1999-025CSX",
        "meta_epoch": "2025-12-24T07:37:11.299296",
        "meta_mean_motion": 14.48752929,
        "meta_eccentricity": 0.02076503,
        "meta_inclination": 98.7689,
        "meta_ra_of_asc_node": 201.7053,
        "meta_arg_of_pericenter": 186.246,
        "meta_mean_anomaly": 173.6138,
        "meta_ephemeris_type": 0,
        "meta_classification_type": "U",
        "meta_norad_cat_id": 32153,
        "meta_element_set_no": 999,
        "meta_rev_at_epoch": 97391,
        "meta_bstar": 0.00027799221,
        "meta_mean_motion_dot": 1.32e-05,
        "meta_mean_motion_ddot": 0,
        "tle_line1": "1 32153U 99025CSX 25358.31749189  .00001320  00000+0  27799-3 0  9996",
        "tle_line2": "2 32153  98.7689 201.7053 0207650 186.2460 173.6138 14.48752929973917"
      },
      "geometry": {
        "type": "Point",
        "coordinates": [
          35.767616738288496,
          54.56986172362796
        ]
      }
    },
    {
      "type": "Feature",
      "properties": {
        "norad_id": 32155,
        "name": "FENGYUN 1C DEB",
        "group": "fengyun-1c-debris",
        "lat": 80.5702099905198,
        "lon": -141.83778384214165,
        "alt_km": 794.4906679456108,
        "timestamp": "2025-12-25T19:00:39.636733+00:00",
        "meta_object_name": "FENGYUN 1C DEB",
        "meta_object_id": "1999-025CSZ",
        "meta_epoch": "2025-12-22T15:11:27.193632",
        "meta_mean_motion": 14.32975023,
        "meta_eccentricity": 0.00693114,
        "meta_inclination": 98.9542,
        "meta_ra_of_asc_node": 286.5796,
        "meta_arg_of_pericenter": 210.5989,
        "meta_mean_anomaly": 149.1143,
        "meta_ephemeris_type": 0,
        "meta_classification_type": "U",
        "meta_norad_cat_id": 32155,
        "meta_element_set_no": 999,
        "meta_rev_at_epoch": 70364,
        "meta_bstar": 0.00042072892,
        "meta_mean_motion_dot": 1.135e-05,
        "meta_mean_motion_ddot": 0,
        "tle_line1": "1 32155U 99025CSZ 25356.63295363  .00001135  00000+0  42073-3 0  9997",
        "tle_line2": "2 32155  98.9542 286.5796 0069311 210.5989 149.1143 14.32975023703641"
      },
      "geometry": {
        "type": "Point",
        "coordinates": [
          -141.83778384214165,
          80.5702099905198
        ]
      }
    },
    {
      "type": "Feature",
      "properties": {
        "norad_id": 32156,
        "name": "FENGYUN 1C DEB",
        "group": "fengyun-1c-debris",
        "lat": 48.13594294842883,
        "lon": 159.7770765345739,
        "alt_km": 729.2935220059699,
        "timestamp": "2025-12-25T19:00:39.636743+00:00",
        "meta_object_name": "FENGYUN 1C DEB",
        "meta_object_id": "1999-025CTA",
        "meta_epoch": "2025-12-21T17:31:26.712192",
        "meta_mean_motion": 14.31964818,
        "meta_eccentricity": 0.00820417,
        "meta_inclination": 99.3545,
        "meta_ra_of_asc_node": 166.001,
        "meta_arg_of_pericenter": 31.7205,
        "meta_mean_anomaly": 328.8882,
        "meta_ephemeris_type": 0,
        "meta_classification_type": "U",
        "meta_norad_cat_id": 32156,
        "meta_element_set_no": 999,
        "meta_rev_at_epoch": 64949,
        "meta_bstar": 0.00022590764,
        "meta_mean_motion_dot": 5.78e-06,
        "meta_mean_motion_ddot": 0,
        "tle_line1": "1 32156U 99025CTA 25355.73017028  .00000578  00000+0  22591-3 0  9991",
        "tle_line2": "2 32156  99.3545 166.0010 0082041  31.7205 328.8882 14.31964818649497"
      },
      "geometry": {
        "type": "Point",
        "coordinates": [
          159.7770765345739,
          48.13594294842883
        ]
      }
    },
    {
      "type": "Feature",
      "properties": {
        "norad_id": 32160,
        "name": "FENGYUN 1C DEB",
        "group": "fengyun-1c-debris",
        "lat": 60.289903536006875,
        "lon": -6.705497241517674,
        "alt_km": 814.6429354156853,
        "timestamp": "2025-12-25T19:00:39.636753+00:00",
        "meta_object_name": "FENGYUN 1C DEB",
        "meta_object_id": "1999-025CTE",
        "meta_epoch": "2025-12-24T05:42:44.692992",
        "meta_mean_motion": 14.37597741,
        "meta_eccentricity": 0.00816512,
        "meta_inclination": 98.8815,
        "meta_ra_of_asc_node": 155.7856,
        "meta_arg_of_pericenter": 324.8235,
        "meta_mean_anomaly": 34.7576,
        "meta_ephemeris_type": 0,
        "meta_classification_type": "U",
        "meta_norad_cat_id": 32160,
        "meta_element_set_no": 999,
        "meta_rev_at_epoch": 96052,
        "meta_bstar": 0.00043465594,
        "meta_mean_motion_dot": 1.306e-05,
        "meta_mean_motion_ddot": 0,
        "tle_line1": "1 32160U 99025CTE 25358.23801728  .00001306  00000+0  43466-3 0  9996",
        "tle_line2": "2 32160  98.8815 155.7856 0081651 324.8235  34.7576 14.37597741960520"
      },
      "geometry": {
        "type": "Point",
        "coordinates": [
          -6.705497241517674,
          60.289903536006875
        ]
      }
    },
    {
      "type": "Feature",
      "properties": {
        "norad_id": 32161,
        "name": "FENGYUN 1C DEB",
        "group": "fengyun-1c-debris",
        "lat": 40.96603163594875,
        "lon": 96.26238163706984,
        "alt_km": 974.9930728242625,
        "timestamp": "2025-12-25T19:00:39.636764+00:00",
        "meta_object_name": "FENGYUN 1C DEB",
        "meta_object_id": "1999-025CTF",
        "meta_epoch": "2025-12-20T13:45:55.412928",
        "meta_mean_motion": 14.01882373,
        "meta_eccentricity": 0.0135471,
        "meta_inclination": 98.8321,
        "meta_ra_of_asc_node": 98.9655,
        "meta_arg_of_pericenter": 258.2246,
        "meta_mean_anomaly": 100.3696,
        "meta_ephemeris_type": 0,
        "meta_classification_type": "U",
        "meta_norad_cat_id": 32161,
        "meta_element_set_no": 999,
        "meta_rev_at_epoch": 63539,
        "meta_bstar": 0.00038333,
        "meta_mean_motion_dot": 5.88e-06,
        "meta_mean_motion_ddot": 0,
        "tle_line1": "1 32161U 99025CTF 25354.57355802  .00000588  00000+0  38333-3 0  9995",
        "tle_line2": "2 32161  98.8321  98.9655 0135471 258.2246 100.3696 14.01882373635396"
      },
      "geometry": {
        "type": "Point",
        "coordinates": [
          96.26238163706984,
          40.96603163594875
        ]
      }
    }
  ]
}